{
    "links": {
        "self": "http://www.neowsapp.com/rest/v1/neo/3372215?api_key=iIulBulltgU6a56xZRHN4H3l9WmuAYTsLGpBGhQ2"
    },
    "id": "3372215",
    "neo_reference_id": "3372215",
    "name": "(2007 FR3)",
    "designation": "2007 FR3",
    "nasa_jpl_url": "http://ssd.jpl.nasa.gov/sbdb.cgi?sstr=3372215",
    "absolute_magnitude_h": 27.5,
    "estimated_diameter": {
        "kilometers": {
            "estimated_diameter_min": 0.008405334,
            "estimated_diameter_max": 0.0187948982
        },
        "meters": {
            "estimated_diameter_min": 8.4053340207,
            "estimated_diameter_max": 18.7948982439
        },
        "miles": {
            "estimated_diameter_min": 0.0052228308,
            "estimated_diameter_max": 0.0116786047
        },
        "feet": {
            "estimated_diameter_min": 27.5765560686,
            "estimated_diameter_max": 61.6630539546
        }
    },
    "is_potentially_hazardous_asteroid": false,
    "close_approach_data": [
        {
            "close_approach_date": "2007-03-25",
            "close_approach_date_full": "2007-Mar-25 21:20",
            "epoch_date_close_approach": 1174857600000,
            "relative_velocity": {
                "kilometers_per_second": "10.4169243524",
                "kilometers_per_hour": "37500.9276686447",
                "miles_per_hour": "23301.6180838865"
            },
            "miss_distance": {
                "astronomical": "0.0084561309",
                "lunar": "3.2894349201",
                "kilometers": "1265019.171081183",
                "miles": "786046.4634510054"
            },
            "orbiting_body": "Earth"
        }
    ],
    "orbital_data": {
        "orbit_id": "6",
        "orbit_determination_date": "2017-04-06 09:06:39",
        "first_observation_date": "2007-03-20",
        "last_observation_date": "2007-03-21",
        "data_arc_in_days": 1,
        "observations_used": 9,
        "orbit_uncertainty": "9",
        "minimum_orbit_intersection": ".00173081",
        "jupiter_tisserand_invariant": "3.830",
        "epoch_osculation": "2454180.5",
        "eccentricity": ".5045256656884709",
        "semi_major_axis": "1.859295629786953",
        "inclination": "1.625860190901142",
        "ascending_node_longitude": "182.582232663733",
        "orbital_period": "926.0215629980577",
        "perihelion_distance": ".9212332644570256",
        "perihelion_argument": "43.0482937532953",
        "aphelion_distance": "2.797357995116879",
        "perihelion_time": "2454216.721802740851",
        "mean_anomaly": "345.9184175533786",
        "mean_motion": ".3887598457583164",
        "equinox": "J2000",
        "orbit_class": {
            "orbit_class_type": "APO",
            "orbit_class_description": "Near-Earth asteroid orbits which cross the Earth’s orbit similar to that of 1862 Apollo",
            "orbit_class_range": "a (semi-major axis) > 1.0 AU; q (perihelion) < 1.017 AU"
        }
    },
    "is_sentry_object": false
}